{"type": "FeatureCollection", "features": [ {"type": "Feature", "properties": {"norad_id": 38552, "name": "METEOSAT-10 (MSG-3)", "group": "weather", "lat": -4.056491300509165, "lon": -46.85913711029534, "alt_km": 35781.640969701424, "timestamp": "2025-12-27T14:26:30.158845+00:00", "meta": {"OBJECT_NAME": "METEOSAT-10 (MSG-3)", "OBJECT_ID": "2012-035B", "EPOCH": "2025-12-26T23:18:23.522112", "MEAN_MOTION": 1.0026664, "ECCENTRICITY": 0.0001553, "INCLINATION": 4.2601, "RA_OF_ASC_NODE": 61.6826, "ARG_OF_PERICENTER": 264.1949, "MEAN_ANOMALY": 119.6815, "EPHEMERIS_TYPE": 0, "CLASSIFICATION_TYPE": "U", "NORAD_CAT_ID": 38552, "ELEMENT_SET_NO": 999, "REV_AT_EPOCH": 4913, "BSTAR": 0, "MEAN_MOTION_DOT": 1.4e-07, "MEAN_MOTION_DDOT": 0}, "tle": {"line1": "1 38552U 12035B   25360.97110558  .00000014  00000+0  00000+0 0  9999", "line2": "2 38552   4.2601  61.6826 0001553 264.1949 119.6815  1.00266640 49139"}}, "geometry": {"type": "Point", "coordinates": [-46.85913711029534, -4.056491300509165]}}, {"type": "Feature", "properties": {"norad_id": 38771, "name": "METOP-B", "group": "weather", "lat": 44.36017160232404, "lon": -120.10362062938859, "alt_km": 814.5525998367266, "timestamp": "2025-12-27T14:26:30.158856+00:00", "meta": {"OBJECT_NAME": "METOP-B", "OBJECT_ID": "2012-049A", "EPOCH": "2025-12-27T05:21:44.347680", "MEAN_MOTION": 14.21413865, "ECCENTRICITY": 0.00033136, "INCLINATION": 98.6779, "RA_OF_ASC_NODE": 50.9353, "ARG_OF_PERICENTER": 114.2861, "MEAN_ANOMALY": 245.8662, "EPHEMERIS_TYPE": 0, "CLASSIFICATION_TYPE": "U", "NORAD_CAT_ID": 38771, "ELEMENT_SET_NO": 999, "REV_AT_EPOCH": 68883, "BSTAR": 8.7344859e-05, "MEAN_MOTION_DOT": 1.47e-06, "MEAN_MOTION_DDOT": 0}, "tle": {"line1": "1 38771U 12049A   25361.22342995  .00000147  00000+0  87345-4 0  9997", "line2": "2 38771  98.6779  50.9353 0003313 114.2861 245.8662 14.21413865688833"}}, "geometry": {"type": "Point", "coordinates": [-120.10362062938859, 44.36017160232404]}}, {"type": "Feature", "properties": {"norad_id": 39216, "name": "INSAT-3D", "group": "weather", "lat": -0.04228730396237136, "lon": 82.50001813627367, "alt_km": 35793.81621904558, "timestamp": "2025-12-27T14:26:30.158869+00:00", "meta": {"OBJECT_NAME": "INSAT-3D", "OBJECT_ID": "2013-038B", "EPOCH": "2025-12-27T06:46:11.127072", "MEAN_MOTION": 1.00272868, "ECCENTRICITY": 0.00019878, "INCLINATION": 1.4805, "RA_OF_ASC_NODE": 84.8292, "ARG_OF_PERICENTER": 159.4606, "MEAN_ANOMALY": 82.8276, "EPHEMERIS_TYPE": 0, "CLASSIFICATION_TYPE": "U", "NORAD_CAT_ID": 39216, "ELEMENT_SET_NO": 999, "REV_AT_EPOCH": 4535, "BSTAR": 0, "MEAN_MOTION_DOT": -3.17e-06, "MEAN_MOTION_DDOT": 0}, "tle": {"line1": "1 39216U 13038B   25361.28207323 -.00000317  00000+0  00000+0 0  9990", "line2": "2 39216   1.4805  84.8292 0001987 159.4606  82.8276  1.00272868 45354"}}, "geometry": {"type": "Point", "coordinates": [82.50001813627367, -0.04228730396237136]}}, {"type": "Feature", "properties": {"norad_id": 39260, "name": "FENGYUN 3C", "group": "weather", "lat": 73.85968823133182, "lon": -52.46743647080811, "alt_km": 830.3997688326945, "timestamp": "2025-12-27T14:26:30.158894+00:00", "meta": {"OBJECT_NAME": "FENGYUN 3C", "OBJECT_ID": "2013-052A", "EPOCH": "2025-12-27T05:36:05.128416", "MEAN_MOTION": 14.15700753, "ECCENTRICITY": 0.00150895, "INCLINATION": 98.4781, "RA_OF_ASC_NODE": 338.2062, "ARG_OF_PERICENTER": 154.4017, "MEAN_ANOMALY": 205.7908, "EPHEMERIS_TYPE": 0, "CLASSIFICATION_TYPE": "U", "NORAD_CAT_ID": 39260, "ELEMENT_SET_NO": 999, "REV_AT_EPOCH": 63423, "BSTAR": 8.460437e-05, "MEAN_MOTION_DOT": 1.25e-06, "MEAN_MOTION_DDOT": 0}, "tle": {"line1": "1 39260U 13052A   25361.23339269  .00000125  00000+0  84604-4 0  9998", "line2": "2 39260  98.4781 338.2062 0015089 154.4017 205.7908 14.15700753634230"}}, "geometry": {"type": "Point", "coordinates": [-52.46743647080811, 73.85968823133182]}}, {"type": "Feature", "properties": {"norad_id": 40069, "name": "METEOR-M 2", "group": "weather", "lat": 1.6903602235958919, "lon": -21.63476903200005, "alt_km": 827.2613142267883, "timestamp": "2025-12-27T14:26:30.158908+00:00", "meta": {"OBJECT_NAME": "METEOR-M 2", "OBJECT_ID": "2014-037A", "EPOCH": "2025-12-27T05:59:11.243616", "MEAN_MOTION": 14.21392452, "ECCENTRICITY": 0.00057131, "INCLINATION": 98.4923, "RA_OF_ASC_NODE": 338.279, "ARG_OF_PERICENTER": 164.9701, "MEAN_ANOMALY": 195.1647, "EPHEMERIS_TYPE": 0, "CLASSIFICATION_TYPE": "U", "NORAD_CAT_ID": 40069, "ELEMENT_SET_NO": 999, "REV_AT_EPOCH": 59489, "BSTAR": 0.00012959203, "MEAN_MOTION_DOT": 2.41e-06, "MEAN_MOTION_DDOT": 0}, "tle": {"line1": "1 40069U 14037A   25361.24943569  .00000241  00000+0  12959-3 0  9998", "line2": "2 40069  98.4923 338.2790 0005713 164.9701 195.1647 14.21392452594893"}}, "geometry": {"type": "Point", "coordinates": [-21.63476903200005, 1.6903602235958919]}}, {"type": "Feature", "properties": {"norad_id": 40267, "name": "HIMAWARI-8", "group": "weather", "lat": -0.01496673885221595, "lon": 93.614304598446, "alt_km": 35790.182308167816, "timestamp": "2025-12-27T14:26:30.158920+00:00", "meta": {"OBJECT_NAME": "HIMAWARI-8", "OBJECT_ID": "2014-060A", "EPOCH": "2025-12-26T08:33:59.245344", "MEAN_MOTION": 1.0027063, "ECCENTRICITY": 0.000101, "INCLINATION": 0.0427, "RA_OF_ASC_NODE": 196.506, "ARG_OF_PERICENTER": 108.6661, "MEAN_ANOMALY": 59.0936, "EPHEMERIS_TYPE": 0, "CLASSIFICATION_TYPE": "U", "NORAD_CAT_ID": 40267, "ELEMENT_SET_NO": 999, "REV_AT_EPOCH": 4102, "BSTAR": 0, "MEAN_MOTION_DOT": -2.54e-06, "MEAN_MOTION_DDOT": 0}, "tle": {"line1": "1 40267U 14060A   25360.35693571 -.00000254  00000+0  00000+0 0  9995", "line2": "2 40267   0.0427 196.5060 0001010 108.6661  59.0936  1.00270630 41029"}}, "geometry": {"type": "Point", "coordinates": [93.614304598446, -0.01496673885221595]}}, {"type": "Feature", "properties": {"norad_id": 40367, "name": "FENGYUN 2G", "group": "weather", "lat": -1.990436729882714, "lon": 52.36121679841409, "alt_km": 35791.264697945306, "timestamp": "2025-12-27T14:26:30.158933+00:00", "meta": {"OBJECT_NAME": "FENGYUN 2G", "OBJECT_ID": "2014-090A", "EPOCH": "2025-12-27T01:29:24.780768", "MEAN_MOTION": 1.00281225, "ECCENTRICITY": 0.00018247, "INCLINATION": 5.2014, "RA_OF_ASC_NODE": 74.9206, "ARG_OF_PERICENTER": 170.6218, "MEAN_ANOMALY": 331.9129, "EPHEMERIS_TYPE": 0, "CLASSIFICATION_TYPE": "U", "NORAD_CAT_ID": 40367, "ELEMENT_SET_NO": 999, "REV_AT_EPOCH": 4027, "BSTAR": 0, "MEAN_MOTION_DOT": -2.81e-06, "MEAN_MOTION_DDOT": 0}, "tle": {"line1": "1 40367U 14090A   25361.06209237 -.00000281  00000+0  00000+0 0  9990", "line2": "2 40367   5.2014  74.9206 0001824 170.6218 331.9129  1.00281225 40274"}}, "geometry": {"type": "Point", "coordinates": [52.36121679841409, -1.990436729882714]}}, {"type": "Feature", "properties": {"norad_id": 40732, "name": "METEOSAT-11 (MSG-4)", "group": "weather", "lat": -2.623295871428285, "lon": -37.87853925433431, "alt_km": 35787.4275050461, "timestamp": "2025-12-27T14:26:30.158945+00:00", "meta": {"OBJECT_NAME": "METEOSAT-11 (MSG-4)", "OBJECT_ID": "2015-034A", "EPOCH": "2025-12-27T04:29:09.250368", "MEAN_MOTION": 1.00272015, "ECCENTRICITY": 6.535e-05, "INCLINATION": 2.7726, "RA_OF_ASC_NODE": 71.9621, "ARG_OF_PERICENTER": 136.4187, "MEAN_ANOMALY": 324.0135, "EPHEMERIS_TYPE": 0, "CLASSIFICATION_TYPE": "U", "NORAD_CAT_ID": 40732, "ELEMENT_SET_NO": 999, "REV_AT_EPOCH": 549, "BSTAR": 0, "MEAN_MOTION_DOT": 8.3e-07, "MEAN_MOTION_DDOT": 0}, "tle": {"line1": "1 40732U 15034A   25361.18691262  .00000083  00000+0  00000+0 0  9990", "line2": "2 40732   2.7726  71.9621 0000653 136.4187 324.0135  1.00272015  5496"}}, "geometry": {"type": "Point", "coordinates": [-37.87853925433431, -2.623295871428285]}}, {"type": "Feature", "properties": {"norad_id": 41105, "name": "ELEKTRO-L 2", "group": "weather", "lat": -4.504824621718434, "lon": -61.67473378816485, "alt_km": 35771.9264514905, "timestamp": "2025-12-27T14:26:30.158957+00:00", "meta": {"OBJECT_NAME": "ELEKTRO-L 2", "OBJECT_ID": "2015-074A", "EPOCH": "2025-12-27T00:56:52.317888", "MEAN_MOTION": 1.00271623, "ECCENTRICITY": 0.00036905, "INCLINATION": 6.2593, "RA_OF_ASC_NODE": 72.658, "ARG_OF_PERICENTER": 207.3207, "MEAN_ANOMALY": 175.545, "EPHEMERIS_TYPE": 0, "CLASSIFICATION_TYPE": "U", "NORAD_CAT_ID": 41105, "ELEMENT_SET_NO": 999, "REV_AT_EPOCH": 3678, "BSTAR": 0, "MEAN_MOTION_DOT": -9.7e-07, "MEAN_MOTION_DDOT": 0}, "tle": {"line1": "1 41105U 15074A   25361.03949442 -.00000097  00000+0  00000+0 0  9995", "line2": "2 41105   6.2593  72.6580 0003690 207.3207 175.5450  1.00271623 36788"}}, "geometry": {"type": "Point", "coordinates": [-61.67473378816485, -4.504824621718434]}}, {"type": "Feature", "properties": {"norad_id": 41752, "name": "INSAT-3DR", "group": "weather", "lat": -0.02909752503225584, "lon": 27.08842457096266, "alt_km": 35811.753547814915, "timestamp": "2025-12-27T14:26:30.158970+00:00", "meta": {"OBJECT_NAME": "INSAT-3DR", "OBJECT_ID": "2016-054A", "EPOCH": "2025-12-27T01:22:12.392832", "MEAN_MOTION": 1.00271416, "ECCENTRICITY": 0.0014402, "INCLINATION": 0.042, "RA_OF_ASC_NODE": 85.462, "ARG_OF_PERICENTER": 186.7324, "MEAN_ANOMALY": 278.1407, "EPHEMERIS_TYPE": 0, "CLASSIFICATION_TYPE": "U", "NORAD_CAT_ID": 41752, "ELEMENT_SET_NO": 999, "REV_AT_EPOCH": 3409, "BSTAR": 0, "MEAN_MOTION_DOT": -5.5e-07, "MEAN_MOTION_DDOT": 0}, "tle": {"line1": "1 41752U 16054A   25361.05708788 -.00000055  00000+0  00000+0 0  9994", "line2": "2 41752   0.0420  85.4620 0014402 186.7324 278.1407  1.00271416 34091"}}, "geometry": {"type": "Point", "coordinates": [27.08842457096266, -0.02909752503225584]}}]}